{
  "type": "FeatureCollection",
  "features": [
    {
      "type": "Feature",
      "properties": {
        "norad_id": 66518,
        "name": "STARLINK-35962",
        "group": "last-30-days",
        "lat": -23.349577560608907,
        "lon": -111.27526104197193,
        "alt_km": 416.077892653685,
        "timestamp": "2025-12-14T22:38:39.516357+00:00",
        "meta_object_name": "STARLINK-35962",
        "meta_object_id": "2025-265C",
        "meta_epoch": "2025-12-14T06:15:41.455008",
        "meta_mean_motion": 15.50617368,
        "meta_eccentricity": 0.00012131,
        "meta_inclination": 42.9999,
        "meta_ra_of_asc_node": 45.1213,
        "meta_arg_of_pericenter": 280.5408,
        "meta_mean_anomaly": 79.5315,
        "meta_ephemeris_type": 0,
        "meta_classification_type": "U",
        "meta_norad_cat_id": 66518,
        "meta_element_set_no": 999,
        "meta_rev_at_epoch": 399,
        "meta_bstar": 0.0033337938,
        "meta_mean_motion_dot": 0.00200605,
        "meta_mean_motion_ddot": 0,
        "tle_line1": "1 66518U 25265C   25348.26089647  .00200605  00000+0  33338-2 0  9994",
        "tle_line2": "2 66518  42.9999  45.1213 0001213 280.5408  79.5315 15.50617368  3993"
      },
      "geometry": {
        "type": "Point",
        "coordinates": [
          -111.27526104197193,
          -23.349577560608907
        ]
      }
    },
    {
      "type": "Feature",
      "properties": {
        "norad_id": 66519,
        "name": "STARLINK-35931",
        "group": "last-30-days",
        "lat": -25.596960191890794,
        "lon": -107.94728099962568,
        "alt_km": 416.4947232308796,
        "timestamp": "2025-12-14T22:38:39.516367+00:00",
        "meta_object_name": "STARLINK-35931",
        "meta_object_id": "2025-265D",
        "meta_epoch": "2025-12-14T04:41:56.287968",
        "meta_mean_motion": 15.50661897,
        "meta_eccentricity": 0.00025706,
        "meta_inclination": 43.0002,
        "meta_ra_of_asc_node": 45.4918,
        "meta_arg_of_pericenter": 292.0231,
        "meta_mean_anomaly": 68.0356,
        "meta_ephemeris_type": 0,
        "meta_classification_type": "U",
        "meta_norad_cat_id": 66519,
        "meta_element_set_no": 999,
        "meta_rev_at_epoch": 398,
        "meta_bstar": 0.0012573186,
        "meta_mean_motion_dot": 0.00074347,
        "meta_mean_motion_ddot": 0,
        "tle_line1": "1 66519U 25265D   25348.19579037  .00074347  00000+0  12573-2 0  9994",
        "tle_line2": "2 66519  43.0002  45.4918 0002570 292.0231  68.0356 15.50661897  3988"
      },
      "geometry": {
        "type": "Point",
        "coordinates": [
          -107.94728099962568,
          -25.596960191890794
        ]
      }
    },
    {
      "type": "Feature",
      "properties": {
        "norad_id": 66520,
        "name": "STARLINK-35952",
        "group": "last-30-days",
        "lat": 22.74319376654199,
        "lon": -165.43743732411863,
        "alt_km": 440.90169357705236,
        "timestamp": "2025-12-14T22:38:39.516377+00:00",
        "meta_object_name": "STARLINK-35952",
        "meta_object_id": "2025-265E",
        "meta_epoch": "2025-12-14T06:00:02.999808",
        "meta_mean_motion": 15.40672691,
        "meta_eccentricity": 9.154e-05,
        "meta_inclination": 43.0003,
        "meta_ra_of_asc_node": 45.2935,
        "meta_arg_of_pericenter": 285.0363,
        "meta_mean_anomaly": 329.4092,
        "meta_ephemeris_type": 0,
        "meta_classification_type": "U",
        "meta_norad_cat_id": 66520,
        "meta_element_set_no": 999,
        "meta_rev_at_epoch": 523,
        "meta_bstar": 0.00073400933,
        "meta_mean_motion_dot": 0.00030452,
        "meta_mean_motion_ddot": 0,
        "tle_line1": "1 66520U 25265E   25348.25003472  .00030452  00000+0  73401-3 0  9995",
        "tle_line2": "2 66520  43.0003  45.2935 0000915 285.0363 329.4092 15.40672691  5231"
      },
      "geometry": {
        "type": "Point",
        "coordinates": [
          -165.43743732411863,
          22.74319376654199
        ]
      }
    },
    {
      "type": "Feature",
      "properties": {
        "norad_id": 66521,
        "name": "STARLINK-35915",
        "group": "last-30-days",
        "lat": -27.60847508729916,
        "lon": -104.748210073888,
        "alt_km": 415.9529206026782,
        "timestamp": "2025-12-14T22:38:39.516387+00:00",
        "meta_object_name": "STARLINK-35915",
        "meta_object_id": "2025-265F",
        "meta_epoch": "2025-12-14T04:40:58.207296",
        "meta_mean_motion": 15.50527356,
        "meta_eccentricity": 0.0002411,
        "meta_inclination": 42.9978,
        "meta_ra_of_asc_node": 45.4873,
        "meta_arg_of_pericenter": 258.1159,
        "meta_mean_anomaly": 101.9431,
        "meta_ephemeris_type": 0,
        "meta_classification_type": "U",
        "meta_norad_cat_id": 66521,
        "meta_element_set_no": 999,
        "meta_rev_at_epoch": 398,
        "meta_bstar": 0.0021069432,
        "meta_mean_motion_dot": 0.0012503,
        "meta_mean_motion_ddot": 0,
        "tle_line1": "1 66521U 25265F   25348.19511814  .00125030  00000+0  21069-2 0  9992",
        "tle_line2": "2 66521  42.9978  45.4873 0002411 258.1159 101.9431 15.50527356  3989"
      },
      "geometry": {
        "type": "Point",
        "coordinates": [
          -104.748210073888,
          -27.60847508729916
        ]
      }
    },
    {
      "type": "Feature",
      "properties": {
        "norad_id": 66522,
        "name": "STARLINK-35946",
        "group": "last-30-days",
        "lat": -28.80743020059998,
        "lon": -102.72791437813454,
        "alt_km": 416.7646271540125,
        "timestamp": "2025-12-14T22:38:39.516397+00:00",
        "meta_object_name": "STARLINK-35946",
        "meta_object_id": "2025-265G",
        "meta_epoch": "2025-12-14T04:40:27.854976",
        "meta_mean_motion": 15.50605207,
        "meta_eccentricity": 0.00019293,
        "meta_inclination": 42.9985,
        "meta_ra_of_asc_node": 45.4842,
        "meta_arg_of_pericenter": 295.5833,
        "meta_mean_anomaly": 64.4827,
        "meta_ephemeris_type": 0,
        "meta_classification_type": "U",
        "meta_norad_cat_id": 66522,
        "meta_element_set_no": 999,
        "meta_rev_at_epoch": 398,
        "meta_bstar": 0.0018938611,
        "meta_mean_motion_dot": 0.00112479,
        "meta_mean_motion_ddot": 0,
        "tle_line1": "1 66522U 25265G   25348.19476684  .00112479  00000+0  18939-2 0  9993",
        "tle_line2": "2 66522  42.9985  45.4842 0001929 295.5833  64.4827 15.50605207  3985"
      },
      "geometry": {
        "type": "Point",
        "coordinates": [
          -102.72791437813454,
          -28.80743020059998
        ]
      }
    },
    {
      "type": "Feature",
      "properties": {
        "norad_id": 66523,
        "name": "STARLINK-35969",
        "group": "last-30-days",
        "lat": -29.871729443987157,
        "lon": -100.85061300270081,
        "alt_km": 416.4178801132284,
        "timestamp": "2025-12-14T22:38:39.516422+00:00",
        "meta_object_name": "STARLINK-35969",
        "meta_object_id": "2025-265H",
        "meta_epoch": "2025-12-13T20:56:10.563936",
        "meta_mean_motion": 15.50583384,
        "meta_eccentricity": 0.00038739,
        "meta_inclination": 43.0001,
        "meta_ra_of_asc_node": 47.3654,
        "meta_arg_of_pericenter": 292.2096,
        "meta_mean_anomaly": 67.8353,
        "meta_ephemeris_type": 0,
        "meta_classification_type": "U",
        "meta_norad_cat_id": 66523,
        "meta_element_set_no": 999,
        "meta_rev_at_epoch": 393,
        "meta_bstar": 0.0013707257,
        "meta_mean_motion_dot": 0.00080936,
        "meta_mean_motion_ddot": 0,
        "tle_line1": "1 66523U 25265H   25347.87234449  .00080936  00000+0  13707-2 0  9999",
        "tle_line2": "2 66523  43.0001  47.3654 0003873 292.2096  67.8353 15.50583384  3931"
      },
      "geometry": {
        "type": "Point",
        "coordinates": [
          -100.85061300270081,
          -29.871729443987157
        ]
      }
    },
    {
      "type": "Feature",
      "properties": {
        "norad_id": 66524,
        "name": "STARLINK-35687",
        "group": "last-30-days",
        "lat": 35.95970810351385,
        "lon": 170.23125278270837,
        "alt_km": 439.0103373941247,
        "timestamp": "2025-12-14T22:38:39.516435+00:00",
        "meta_object_name": "STARLINK-35687",
        "meta_object_id": "2025-265J",
        "meta_epoch": "2025-12-14T06:00:02.999808",
        "meta_mean_motion": 15.40687875,
        "meta_eccentricity": 0.00013056,
        "meta_inclination": 43.0008,
        "meta_ra_of_asc_node": 45.3519,
        "meta_arg_of_pericenter": 269.6821,
        "meta_mean_anomaly": 319.8298,
        "meta_ephemeris_type": 0,
        "meta_classification_type": "U",
        "meta_norad_cat_id": 66524,
        "meta_element_set_no": 999,
        "meta_rev_at_epoch": 523,
        "meta_bstar": 0.00077164285,
        "meta_mean_motion_dot": 0.00032052,
        "meta_mean_motion_ddot": 0,
        "tle_line1": "1 66524U 25265J   25348.25003472  .00032052  00000+0  77164-3 0  9997",
        "tle_line2": "2 66524  43.0008  45.3519 0001305 269.6821 319.8298 15.40687875  5231"
      },
      "geometry": {
        "type": "Point",
        "coordinates": [
          170.23125278270837,
          35.95970810351385
        ]
      }
    }
  ]
}